UNKNOWN                 
1 85004U          25345.68380625  .00001616  00000+0  50871-3 0  9991
2 85004  98.4214 316.7396 0047163 164.2227  18.3869 14.41081931630744
UNKNOWN                 
1 85010U          25345.10301105  .00001526  00000+0  16388-2 0  9995
2 85010  99.2493 207.0624 0026077 260.5754 253.4346 13.75044402603695
UNKNOWN                 
1 85015U          25343.89885349  .00000833  00000+0  17075-3 0  9996
2 85015  74.0495  43.6418 0016476 308.7404  51.2289 14.62283518642195
UNKNOWN                 
1 85023U          25345.54166736  .00061544  00000+0  92294-2 0  9992
2 85023  99.8513   0.7846 0001909 338.2944 173.9265 14.74272317628650
UNKNOWN                 
1 85027U          25345.63373378  .00000414  00000+0  46576-3 0  9990
2 85027  66.0411 104.2163 0177704 191.2454 168.4618 13.74245327604463
UNKNOWN                 
1 85047U          25344.62936525  .00023946  00000+0  38354-1 0  9997
2 85047 102.2043 309.6243 0156845  11.4298 349.0322 13.44073715576375
UNKNOWN                 
1 85061U          25343.90866118  .00003865  00000+0  15577-1 0  9993
2 85061 102.3970 327.4600 0260716 199.5860 189.4942 12.76975162555420
UNKNOWN                 
1 85100U          25345.42540034  .00000565  00000+0  18478-3 0  9991
2 85100  74.0458 225.2158 0011265  95.0164  83.2485 14.40708666633159
UNKNOWN                 
1 85106U          25345.52742279  .00000904  00000+0  10336-2 0  9994
2 85106 100.0570  86.3288 0009400  17.1452   0.3658 13.72896396602906
UNKNOWN                 
1 85151U          25345.14672906  .00034145  00000+0  46662-2 0  9996
2 85151  98.4008 209.1128 0007662 130.8652 229.3223 14.78445305479295
UNKNOWN                 
1 85210U          25343.89099655  .00001165  00000+0  11401-2 0  9995
2 85210  99.8559 124.8009 0216422 321.4810 191.1038 13.71526513601760
UNKNOWN                 
1 85217U          25344.21777237  .00005669  00000+0  14920-2 0  9990
2 85217  98.0310  78.7803 0209091 135.9311 225.8757 14.37169599627491
