CCSDS_OMM_VERS = 2.0
CREATION_DATE  = 
ORIGINATOR     = 

OBJECT_NAME    = UNKNOWN
OBJECT_ID      = 
CENTER_NAME    = EARTH
REF_FRAME      = TEME
TIME_SYSTEM    = UTC
MEAN_ELEMENT_THEORY = SGP/SGP4

EPOCH          = 2025-12-11T16:24:40.860000
MEAN_MOTION    = 14.41081931
ECCENTRICITY   = .0047163
INCLINATION    = 98.4214
RA_OF_ASC_NODE = 316.7396
ARG_OF_PERICENTER = 164.2227
MEAN_ANOMALY   = 18.3869

EPHEMERIS_TYPE = 0
CLASSIFICATION_TYPE = U
NORAD_CAT_ID   = 85004
ELEMENT_SET_NO = 999
REV_AT_EPOCH   = 63074
BSTAR          = .50871E-3
MEAN_MOTION_DOT = .1616E-4
MEAN_MOTION_DDOT = 0

CCSDS_OMM_VERS = 2.0
CREATION_DATE  = 
ORIGINATOR     = 

OBJECT_NAME    = UNKNOWN
OBJECT_ID      = 
CENTER_NAME    = EARTH
REF_FRAME      = TEME
TIME_SYSTEM    = UTC
MEAN_ELEMENT_THEORY = SGP/SGP4

EPOCH          = 2025-12-11T02:28:20.154720
MEAN_MOTION    = 13.75044402
ECCENTRICITY   = .0026077
INCLINATION    = 99.2493
RA_OF_ASC_NODE = 207.0624
ARG_OF_PERICENTER = 260.5754
MEAN_ANOMALY   = 253.4346

EPHEMERIS_TYPE = 0
CLASSIFICATION_TYPE = U
NORAD_CAT_ID   = 85010
ELEMENT_SET_NO = 999
REV_AT_EPOCH   = 60369
BSTAR          = .16388E-2
MEAN_MOTION_DOT = .1526E-4
MEAN_MOTION_DDOT = 0

CCSDS_OMM_VERS = 2.0
CREATION_DATE  = 
ORIGINATOR     = 

OBJECT_NAME    = UNKNOWN
OBJECT_ID      = 
CENTER_NAME    = EARTH
REF_FRAME      = TEME
TIME_SYSTEM    = UTC
MEAN_ELEMENT_THEORY = SGP/SGP4

EPOCH          = 2025-12-09T21:34:20.941536
MEAN_MOTION    = 14.62283518
ECCENTRICITY   = .0016476
INCLINATION    = 74.0495
RA_OF_ASC_NODE = 43.6418
ARG_OF_PERICENTER = 308.7404
MEAN_ANOMALY   = 51.2289

EPHEMERIS_TYPE = 0
CLASSIFICATION_TYPE = U
NORAD_CAT_ID   = 85015
ELEMENT_SET_NO = 999
REV_AT_EPOCH   = 64219
BSTAR          = .17075E-3
MEAN_MOTION_DOT = .833E-5
MEAN_MOTION_DDOT = 0

CCSDS_OMM_VERS = 2.0
CREATION_DATE  = 
ORIGINATOR     = 

OBJECT_NAME    = UNKNOWN
OBJECT_ID      = 
CENTER_NAME    = EARTH
REF_FRAME      = TEME
TIME_SYSTEM    = UTC
MEAN_ELEMENT_THEORY = SGP/SGP4

EPOCH          = 2025-12-11T13:00:00.059904
MEAN_MOTION    = 14.74272317
ECCENTRICITY   = .0001909
INCLINATION    = 99.8513
RA_OF_ASC_NODE = 0.7846
ARG_OF_PERICENTER = 338.2944
MEAN_ANOMALY   = 173.9265

EPHEMERIS_TYPE = 0
CLASSIFICATION_TYPE = U
NORAD_CAT_ID   = 85023
ELEMENT_SET_NO = 999
REV_AT_EPOCH   = 62865
BSTAR          = .92294E-2
MEAN_MOTION_DOT = .61544E-3
MEAN_MOTION_DDOT = 0

CCSDS_OMM_VERS = 2.0
CREATION_DATE  = 
ORIGINATOR     = 

OBJECT_NAME    = UNKNOWN
OBJECT_ID      = 
CENTER_NAME    = EARTH
REF_FRAME      = TEME
TIME_SYSTEM    = UTC
MEAN_ELEMENT_THEORY = SGP/SGP4

EPOCH          = 2025-12-11T15:12:34.598592
MEAN_MOTION    = 13.74245327
ECCENTRICITY   = .0177704
INCLINATION    = 66.0411
RA_OF_ASC_NODE = 104.2163
ARG_OF_PERICENTER = 191.2454
MEAN_ANOMALY   = 168.4618

EPHEMERIS_TYPE = 0
CLASSIFICATION_TYPE = U
NORAD_CAT_ID   = 85027
ELEMENT_SET_NO = 999
REV_AT_EPOCH   = 60446
BSTAR          = .46576E-3
MEAN_MOTION_DOT = .414E-5
MEAN_MOTION_DDOT = 0

CCSDS_OMM_VERS = 2.0
CREATION_DATE  = 
ORIGINATOR     = 

OBJECT_NAME    = UNKNOWN
OBJECT_ID      = 
CENTER_NAME    = EARTH
REF_FRAME      = TEME
TIME_SYSTEM    = UTC
MEAN_ELEMENT_THEORY = SGP/SGP4

EPOCH          = 2025-12-10T15:06:17.157600
MEAN_MOTION    = 13.44073715
ECCENTRICITY   = .0156845
INCLINATION    = 102.2043
RA_OF_ASC_NODE = 309.6243
ARG_OF_PERICENTER = 11.4298
MEAN_ANOMALY   = 349.0322

EPHEMERIS_TYPE = 0
CLASSIFICATION_TYPE = U
NORAD_CAT_ID   = 85047
ELEMENT_SET_NO = 999
REV_AT_EPOCH   = 57637
BSTAR          = .38354E-1
MEAN_MOTION_DOT = .23946E-3
MEAN_MOTION_DDOT = 0

CCSDS_OMM_VERS = 2.0
CREATION_DATE  = 
ORIGINATOR     = 

OBJECT_NAME    = UNKNOWN
OBJECT_ID      = 
CENTER_NAME    = EARTH
REF_FRAME      = TEME
TIME_SYSTEM    = UTC
MEAN_ELEMENT_THEORY = SGP/SGP4

EPOCH          = 2025-12-09T21:48:28.325952
MEAN_MOTION    = 12.76975162
ECCENTRICITY   = .0260716
INCLINATION    = 102.3970
RA_OF_ASC_NODE = 327.4600
ARG_OF_PERICENTER = 199.5860
MEAN_ANOMALY   = 189.4942

EPHEMERIS_TYPE = 0
CLASSIFICATION_TYPE = U
NORAD_CAT_ID   = 85061
ELEMENT_SET_NO = 999
REV_AT_EPOCH   = 55542
BSTAR          = .15577E-1
MEAN_MOTION_DOT = .3865E-4
MEAN_MOTION_DDOT = 0

CCSDS_OMM_VERS = 2.0
CREATION_DATE  = 
ORIGINATOR     = 

OBJECT_NAME    = UNKNOWN
OBJECT_ID      = 
CENTER_NAME    = EARTH
REF_FRAME      = TEME
TIME_SYSTEM    = UTC
MEAN_ELEMENT_THEORY = SGP/SGP4

EPOCH          = 2025-12-11T10:12:34.589376
MEAN_MOTION    = 14.40708666
ECCENTRICITY   = .0011265
INCLINATION    = 74.0458
RA_OF_ASC_NODE = 225.2158
ARG_OF_PERICENTER = 95.0164
MEAN_ANOMALY   = 83.2485

EPHEMERIS_TYPE = 0
CLASSIFICATION_TYPE = U
NORAD_CAT_ID   = 85100
ELEMENT_SET_NO = 999
REV_AT_EPOCH   = 63315
BSTAR          = .18478E-3
MEAN_MOTION_DOT = .565E-5
MEAN_MOTION_DDOT = 0

CCSDS_OMM_VERS = 2.0
CREATION_DATE  = 
ORIGINATOR     = 

OBJECT_NAME    = UNKNOWN
OBJECT_ID      = 
CENTER_NAME    = EARTH
REF_FRAME      = TEME
TIME_SYSTEM    = UTC
MEAN_ELEMENT_THEORY = SGP/SGP4

EPOCH          = 2025-12-11T12:39:29.329056
MEAN_MOTION    = 13.72896396
ECCENTRICITY   = .00094
INCLINATION    = 100.0570
RA_OF_ASC_NODE = 86.3288
ARG_OF_PERICENTER = 17.1452
MEAN_ANOMALY   = 0.3658

EPHEMERIS_TYPE = 0
CLASSIFICATION_TYPE = U
NORAD_CAT_ID   = 85106
ELEMENT_SET_NO = 999
REV_AT_EPOCH   = 60290
BSTAR          = .10336E-2
MEAN_MOTION_DOT = .904E-5
MEAN_MOTION_DDOT = 0

CCSDS_OMM_VERS = 2.0
CREATION_DATE  = 
ORIGINATOR     = 

OBJECT_NAME    = UNKNOWN
OBJECT_ID      = 
CENTER_NAME    = EARTH
REF_FRAME      = TEME
TIME_SYSTEM    = UTC
MEAN_ELEMENT_THEORY = SGP/SGP4

EPOCH          = 2025-12-11T03:31:17.390784
MEAN_MOTION    = 14.78445305
ECCENTRICITY   = .0007662
INCLINATION    = 98.4008
RA_OF_ASC_NODE = 209.1128
ARG_OF_PERICENTER = 130.8652
MEAN_ANOMALY   = 229.3223

EPHEMERIS_TYPE = 0
CLASSIFICATION_TYPE = U
NORAD_CAT_ID   = 85151
ELEMENT_SET_NO = 999
REV_AT_EPOCH   = 47929
BSTAR          = .46662E-2
MEAN_MOTION_DOT = .34145E-3
MEAN_MOTION_DDOT = 0

CCSDS_OMM_VERS = 2.0
CREATION_DATE  = 
ORIGINATOR     = 

OBJECT_NAME    = UNKNOWN
OBJECT_ID      = 
CENTER_NAME    = EARTH
REF_FRAME      = TEME
TIME_SYSTEM    = UTC
MEAN_ELEMENT_THEORY = SGP/SGP4

EPOCH          = 2025-12-09T21:23:02.101920
MEAN_MOTION    = 13.71526513
ECCENTRICITY   = .0216422
INCLINATION    = 99.8559
RA_OF_ASC_NODE = 124.8009
ARG_OF_PERICENTER = 321.4810
MEAN_ANOMALY   = 191.1038

EPHEMERIS_TYPE = 0
CLASSIFICATION_TYPE = U
NORAD_CAT_ID   = 85210
ELEMENT_SET_NO = 999
REV_AT_EPOCH   = 60176
BSTAR          = .11401E-2
MEAN_MOTION_DOT = .1165E-4
MEAN_MOTION_DDOT = 0

CCSDS_OMM_VERS = 2.0
CREATION_DATE  = 
ORIGINATOR     = 

OBJECT_NAME    = UNKNOWN
OBJECT_ID      = 
CENTER_NAME    = EARTH
REF_FRAME      = TEME
TIME_SYSTEM    = UTC
MEAN_ELEMENT_THEORY = SGP/SGP4

EPOCH          = 2025-12-10T05:13:35.532768
MEAN_MOTION    = 14.37169599
ECCENTRICITY   = .0209091
INCLINATION    = 98.0310
RA_OF_ASC_NODE = 78.7803
ARG_OF_PERICENTER = 135.9311
MEAN_ANOMALY   = 225.8757

EPHEMERIS_TYPE = 0
CLASSIFICATION_TYPE = U
NORAD_CAT_ID   = 85217
ELEMENT_SET_NO = 999
REV_AT_EPOCH   = 62749
BSTAR          = .1492E-2
MEAN_MOTION_DOT = .5669E-4
MEAN_MOTION_DDOT = 0

